{
  "type": "FeatureCollection",
  "features": [
    {
      "type": "Feature",
      "properties": {
        "norad_id": 66482,
        "name": "STARLINK-35648",
        "group": "last-30-days",
        "lat": 29.799850911773582,
        "lon": -144.00629207474242,
        "alt_km": 410.8953277832443,
        "timestamp": "2025-12-12T05:47:27.524860+00:00",
        "meta_object_name": "STARLINK-35648",
        "meta_object_id": "2025-262AC",
        "meta_epoch": "2025-12-11T15:18:23.183712",
        "meta_mean_motion": 15.50608502,
        "meta_eccentricity": 0.00016735,
        "meta_inclination": 43.0001,
        "meta_ra_of_asc_node": 77.4468,
        "meta_arg_of_pericenter": 270.6994,
        "meta_mean_anomaly": 89.3674,
        "meta_ephemeris_type": 0,
        "meta_classification_type": "U",
        "meta_norad_cat_id": 66482,
        "meta_element_set_no": 999,
        "meta_rev_at_epoch": 523,
        "meta_bstar": 0.00095038499,
        "meta_mean_motion_dot": 0.00055871,
        "meta_mean_motion_ddot": 0,
        "tle_line1": "1 66482U 25262AC  25345.63776833  .00055871  00000+0  95038-3 0  9998",
        "tle_line2": "2 66482  43.0001  77.4468 0001673 270.6994  89.3674 15.50608502  5235"
      },
      "geometry": {
        "type": "Point",
        "coordinates": [
          -144.00629207474242,
          29.799850911773582
        ]
      }
    },
    {
      "type": "Feature",
      "properties": {
        "norad_id": 66483,
        "name": "STARLINK-35654",
        "group": "last-30-days",
        "lat": 28.64850735742586,
        "lon": -141.98346722986756,
        "alt_km": 410.63872678100415,
        "timestamp": "2025-12-12T05:47:27.524870+00:00",
        "meta_object_name": "STARLINK-35654",
        "meta_object_id": "2025-262AD",
        "meta_epoch": "2025-12-11T15:17:53.336832",
        "meta_mean_motion": 15.50642502,
        "meta_eccentricity": 0.00021538,
        "meta_inclination": 43.0001,
        "meta_ra_of_asc_node": 77.4431,
        "meta_arg_of_pericenter": 257.4372,
        "meta_mean_anomaly": 102.6247,
        "meta_ephemeris_type": 0,
        "meta_classification_type": "U",
        "meta_norad_cat_id": 66483,
        "meta_element_set_no": 999,
        "meta_rev_at_epoch": 539,
        "meta_bstar": 0.002466252,
        "meta_mean_motion_dot": 0.00147434,
        "meta_mean_motion_ddot": 0,
        "tle_line1": "1 66483U 25262AD  25345.63742288  .00147434  00000+0  24663-2 0  9998",
        "tle_line2": "2 66483  43.0001  77.4431 0002153 257.4372 102.6247 15.50642502  5393"
      },
      "geometry": {
        "type": "Point",
        "coordinates": [
          -141.98346722986756,
          28.64850735742586
        ]
      }
    },
    {
      "type": "Feature",
      "properties": {
        "norad_id": 66484,
        "name": "STARLINK-35371",
        "group": "last-30-days",
        "lat": 27.55681558806056,
        "lon": -140.14942545898415,
        "alt_km": 410.6639706972828,
        "timestamp": "2025-12-12T05:47:27.524880+00:00",
        "meta_object_name": "STARLINK-35371",
        "meta_object_id": "2025-262AE",
        "meta_epoch": "2025-12-11T15:17:24.038592",
        "meta_mean_motion": 15.50644165,
        "meta_eccentricity": 0.00013158,
        "meta_inclination": 43.0001,
        "meta_ra_of_asc_node": 77.4416,
        "meta_arg_of_pericenter": 288.2599,
        "meta_mean_anomaly": 71.8118,
        "meta_ephemeris_type": 0,
        "meta_classification_type": "U",
        "meta_norad_cat_id": 66484,
        "meta_element_set_no": 999,
        "meta_rev_at_epoch": 539,
        "meta_bstar": 0.0028524623,
        "meta_mean_motion_dot": 0.00171103,
        "meta_mean_motion_ddot": 0,
        "tle_line1": "1 66484U 25262AE  25345.63708378  .00171103  00000+0  28525-2 0  9992",
        "tle_line2": "2 66484  43.0001  77.4416 0001315 288.2599  71.8118 15.50644165  5390"
      },
      "geometry": {
        "type": "Point",
        "coordinates": [
          -140.14942545898415,
          27.55681558806056
        ]
      }
    },
    {
      "type": "Feature",
      "properties": {
        "norad_id": 66485,
        "name": "STARLINK-34774",
        "group": "last-30-days",
        "lat": -37.90300145485214,
        "lon": 71.61932711330888,
        "alt_km": 445.783130267866,
        "timestamp": "2025-12-12T05:47:27.524891+00:00",
        "meta_object_name": "STARLINK-34774",
        "meta_object_id": "2025-263A",
        "meta_epoch": "2025-12-11T22:00:01.999584",
        "meta_mean_motion": 15.40594905,
        "meta_eccentricity": 0.00022329,
        "meta_inclination": 43.0005,
        "meta_ra_of_asc_node": 130.1564,
        "meta_arg_of_pericenter": 294.9766,
        "meta_mean_anomaly": 358.2963,
        "meta_ephemeris_type": 0,
        "meta_classification_type": "U",
        "meta_norad_cat_id": 66485,
        "meta_element_set_no": 999,
        "meta_rev_at_epoch": 550,
        "meta_bstar": 0.0025929587,
        "meta_mean_motion_dot": 0.00109194,
        "meta_mean_motion_ddot": 0,
        "tle_line1": "1 66485U 25263A   25345.91668981  .00109194  00000+0  25930-2 0  9998",
        "tle_line2": "2 66485  43.0005 130.1564 0002232 294.9766 358.2963 15.40594905  5503"
      },
      "geometry": {
        "type": "Point",
        "coordinates": [
          71.61932711330888,
          -37.90300145485214
        ]
      }
    },
    {
      "type": "Feature",
      "properties": {
        "norad_id": 66486,
        "name": "STARLINK-34844",
        "group": "last-30-days",
        "lat": 12.191378222331934,
        "lon": 141.4903829843867,
        "alt_km": 413.28128829698016,
        "timestamp": "2025-12-12T05:47:27.524902+00:00",
        "meta_object_name": "STARLINK-34844",
        "meta_object_id": "2025-263B",
        "meta_epoch": "2025-12-11T22:00:01.999584",
        "meta_mean_motion": 15.50464847,
        "meta_eccentricity": 0.0001708,
        "meta_inclination": 43.0002,
        "meta_ra_of_asc_node": 129.9833,
        "meta_arg_of_pericenter": 280.2044,
        "meta_mean_anomaly": 83.8624,
        "meta_ephemeris_type": 0,
        "meta_classification_type": "U",
        "meta_norad_cat_id": 66486,
        "meta_element_set_no": 999,
        "meta_rev_at_epoch": 545,
        "meta_bstar": 0.0022824517,
        "meta_mean_motion_dot": 0.00135348,
        "meta_mean_motion_ddot": 0,
        "tle_line1": "1 66486U 25263B   25345.91668981  .00135348  00000+0  22825-2 0  9999",
        "tle_line2": "2 66486  43.0002 129.9833 0001708 280.2044  83.8624 15.50464847  5451"
      },
      "geometry": {
        "type": "Point",
        "coordinates": [
          141.4903829843867,
          12.191378222331934
        ]
      }
    },
    {
      "type": "Feature",
      "properties": {
        "norad_id": 66487,
        "name": "STARLINK-34733",
        "group": "last-30-days",
        "lat": 7.872783346784199,
        "lon": 136.63370062352095,
        "alt_km": 427.1368567883055,
        "timestamp": "2025-12-12T05:47:27.524936+00:00",
        "meta_object_name": "STARLINK-34733",
        "meta_object_id": "2025-263C",
        "meta_epoch": "2025-12-11T22:00:01.999584",
        "meta_mean_motion": 15.4745934,
        "meta_eccentricity": 0.00016039,
        "meta_inclination": 43.0002,
        "meta_ra_of_asc_node": 129.9882,
        "meta_arg_of_pericenter": 277.4229,
        "meta_mean_anomaly": 84.6221,
        "meta_ephemeris_type": 0,
        "meta_classification_type": "U",
        "meta_norad_cat_id": 66487,
        "meta_element_set_no": 999,
        "meta_rev_at_epoch": 550,
        "meta_bstar": -0.043703264,
        "meta_mean_motion_dot": -0.02044685,
        "meta_mean_motion_ddot": 0,
        "tle_line1": "1 66487U 25263C   25345.91668981 -.02044685  00000+0 -43703-1 0  9994",
        "tle_line2": "2 66487  43.0002 129.9882 0001603 277.4229  84.6221 15.47459340  5509"
      },
      "geometry": {
        "type": "Point",
        "coordinates": [
          136.63370062352095,
          7.872783346784199
        ]
      }
    },
    {
      "type": "Feature",
      "properties": {
        "norad_id": 66488,
        "name": "STARLINK-35515",
        "group": "last-30-days",
        "lat": 14.718793265541157,
        "lon": 144.44944671035375,
        "alt_km": 412.9996744684686,
        "timestamp": "2025-12-12T05:47:27.524947+00:00",
        "meta_object_name": "STARLINK-35515",
        "meta_object_id": "2025-263D",
        "meta_epoch": "2025-12-11T22:00:01.999584",
        "meta_mean_motion": 15.50462718,
        "meta_eccentricity": 0.00016202,
        "meta_inclination": 43.0001,
        "meta_ra_of_asc_node": 129.9743,
        "meta_arg_of_pericenter": 276.4072,
        "meta_mean_anomaly": 91.4899,
        "meta_ephemeris_type": 0,
        "meta_classification_type": "U",
        "meta_norad_cat_id": 66488,
        "meta_element_set_no": 999,
        "meta_rev_at_epoch": 550,
        "meta_bstar": 0.002633737,
        "meta_mean_motion_dot": 0.00156648,
        "meta_mean_motion_ddot": 0,
        "tle_line1": "1 66488U 25263D   25345.91668981  .00156648  00000+0  26337-2 0  9999",
        "tle_line2": "2 66488  43.0001 129.9743 0001620 276.4072  91.4899 15.50462718  5503"
      },
      "geometry": {
        "type": "Point",
        "coordinates": [
          144.44944671035375,
          14.718793265541157
        ]
      }
    }
  ]
}